STARLINK-35563          
1 66087U 25236B   25310.27946934  .00228263  00000+0  15160-2 0  9997
2 66087  53.1576 321.1334 0001104 105.5407 254.5735 15.74265318  3939
STARLINK-35461          
1 66088U 25236C   25310.27879366  .00247656  00000+0  16406-2 0  9993
2 66088  53.1576 321.1287 0001014  99.4843 260.6292 15.74266028  3937
STARLINK-35571          
1 66089U 25236D   25310.27913161  .00241216  00000+0  15997-2 0  9996
2 66089  53.1575 321.1312 0000877 110.9221 249.1892 15.74260112  3993
STARLINK-35570          
1 66090U 25236E   25310.27845530  .00259714  00000+0  17175-2 0  9994
2 66090  53.1575 321.1271 0001012  82.5521 277.5614 15.74269416  3991
STARLINK-35532          
1 66091U 25236F   25310.27811734  .00227240  00000+0  15097-2 0  9994
2 66091  53.1575 321.1245 0000893  94.5592 265.5530 15.74261056  3996
STARLINK-35527          
1 66092U 25236G   25310.27777920  .00188671  00000+0  12608-2 0  9992
2 66092  53.1573 321.1215 0000878  77.8571 282.2547 15.74246314  3990
STARLINK-35500          
1 66093U 25236H   25310.27744158  .00211748  00000+0  14100-2 0  9991
2 66093  53.1574 321.1195 0001398  84.3377 275.7803 15.74256312  3995
STARLINK-35528          
1 66094U 25236J   25310.27710452  .00237207  00000+0  15742-2 0  9993
2 66094  53.1574 321.1172 0001216 106.8205 253.2948 15.74255994  3996
STARLINK-35559          
1 66095U 25236K   25310.27676207  .00349624  00000+0  22809-2 0  9992
2 66095  53.1574 321.1147 0001124 106.3532 253.7611 15.74319753  3991
STARLINK-34386          
1 66096U 25236L   25310.21294063  .00252452  00000+0  16715-2 0  9994
2 66096  53.1573 321.4271 0001222  99.4865 260.6293 15.74263218  3988
STARLINK-35613          
1 66097U 25236M   25310.21226305  .00229842  00000+0  15265-2 0  9995
2 66097  53.1574 321.4222 0001080 102.6650 257.4491 15.74260143  3985
STARLINK-34206          
1 66098U 25236N   25310.27541383  .00204226  00000+0  13616-2 0  9995
2 66098  53.1577 321.1050 0001126  95.6787 264.4361 15.74250485  3980
