CCSDS_OMM_VERS = 2.0
CREATION_DATE  = 
ORIGINATOR     = 

OBJECT_NAME    = STARLINK-35563
OBJECT_ID      = 2025-236B
CENTER_NAME    = EARTH
REF_FRAME      = TEME
TIME_SYSTEM    = UTC
MEAN_ELEMENT_THEORY = SGP/SGP4

EPOCH          = 2025-11-06T06:42:26.150976
MEAN_MOTION    = 15.74265318
ECCENTRICITY   = .00011045
INCLINATION    = 53.1576
RA_OF_ASC_NODE = 321.1334
ARG_OF_PERICENTER = 105.5407
MEAN_ANOMALY   = 254.5735

EPHEMERIS_TYPE = 0
CLASSIFICATION_TYPE = U
NORAD_CAT_ID   = 66087
ELEMENT_SET_NO = 999
REV_AT_EPOCH   = 393
BSTAR          = .15160003E-2
MEAN_MOTION_DOT = .228263E-2
MEAN_MOTION_DDOT = 0

CCSDS_OMM_VERS = 2.0
CREATION_DATE  = 
ORIGINATOR     = 

OBJECT_NAME    = STARLINK-35461
OBJECT_ID      = 2025-236C
CENTER_NAME    = EARTH
REF_FRAME      = TEME
TIME_SYSTEM    = UTC
MEAN_ELEMENT_THEORY = SGP/SGP4

EPOCH          = 2025-11-06T06:41:27.772224
MEAN_MOTION    = 15.74266028
ECCENTRICITY   = .00010146
INCLINATION    = 53.1576
RA_OF_ASC_NODE = 321.1287
ARG_OF_PERICENTER = 99.4843
MEAN_ANOMALY   = 260.6292

EPHEMERIS_TYPE = 0
CLASSIFICATION_TYPE = U
NORAD_CAT_ID   = 66088
ELEMENT_SET_NO = 999
REV_AT_EPOCH   = 393
BSTAR          = .16405735E-2
MEAN_MOTION_DOT = .247656E-2
MEAN_MOTION_DDOT = 0

CCSDS_OMM_VERS = 2.0
CREATION_DATE  = 
ORIGINATOR     = 

OBJECT_NAME    = STARLINK-35571
OBJECT_ID      = 2025-236D
CENTER_NAME    = EARTH
REF_FRAME      = TEME
TIME_SYSTEM    = UTC
MEAN_ELEMENT_THEORY = SGP/SGP4

EPOCH          = 2025-11-06T06:41:56.971104
MEAN_MOTION    = 15.74260112
ECCENTRICITY   = .00008773
INCLINATION    = 53.1575
RA_OF_ASC_NODE = 321.1312
ARG_OF_PERICENTER = 110.9221
MEAN_ANOMALY   = 249.1892

EPHEMERIS_TYPE = 0
CLASSIFICATION_TYPE = U
NORAD_CAT_ID   = 66089
ELEMENT_SET_NO = 999
REV_AT_EPOCH   = 399
BSTAR          = .15996551E-2
MEAN_MOTION_DOT = .241216E-2
MEAN_MOTION_DDOT = 0

CCSDS_OMM_VERS = 2.0
CREATION_DATE  = 
ORIGINATOR     = 

OBJECT_NAME    = STARLINK-35570
OBJECT_ID      = 2025-236E
CENTER_NAME    = EARTH
REF_FRAME      = TEME
TIME_SYSTEM    = UTC
MEAN_ELEMENT_THEORY = SGP/SGP4

EPOCH          = 2025-11-06T06:40:58.537920
MEAN_MOTION    = 15.74269416
ECCENTRICITY   = .00010125
INCLINATION    = 53.1575
RA_OF_ASC_NODE = 321.1271
ARG_OF_PERICENTER = 82.5521
MEAN_ANOMALY   = 277.5614

EPHEMERIS_TYPE = 0
CLASSIFICATION_TYPE = U
NORAD_CAT_ID   = 66090
ELEMENT_SET_NO = 999
REV_AT_EPOCH   = 399
BSTAR          = .17175131E-2
MEAN_MOTION_DOT = .259714E-2
MEAN_MOTION_DDOT = 0

CCSDS_OMM_VERS = 2.0
CREATION_DATE  = 
ORIGINATOR     = 

OBJECT_NAME    = STARLINK-35532
OBJECT_ID      = 2025-236F
CENTER_NAME    = EARTH
REF_FRAME      = TEME
TIME_SYSTEM    = UTC
MEAN_ELEMENT_THEORY = SGP/SGP4

EPOCH          = 2025-11-06T06:40:29.338176
MEAN_MOTION    = 15.74261056
ECCENTRICITY   = .00008933
INCLINATION    = 53.1575
RA_OF_ASC_NODE = 321.1245
ARG_OF_PERICENTER = 94.5592
MEAN_ANOMALY   = 265.5530

EPHEMERIS_TYPE = 0
CLASSIFICATION_TYPE = U
NORAD_CAT_ID   = 66091
ELEMENT_SET_NO = 999
REV_AT_EPOCH   = 399
BSTAR          = .15096774E-2
MEAN_MOTION_DOT = .22724E-2
MEAN_MOTION_DDOT = 0

CCSDS_OMM_VERS = 2.0
CREATION_DATE  = 
ORIGINATOR     = 

OBJECT_NAME    = STARLINK-35527
OBJECT_ID      = 2025-236G
CENTER_NAME    = EARTH
REF_FRAME      = TEME
TIME_SYSTEM    = UTC
MEAN_ELEMENT_THEORY = SGP/SGP4

EPOCH          = 2025-11-06T06:40:00.122880
MEAN_MOTION    = 15.74246314
ECCENTRICITY   = .00008789
INCLINATION    = 53.1573
RA_OF_ASC_NODE = 321.1215
ARG_OF_PERICENTER = 77.8571
MEAN_ANOMALY   = 282.2547

EPHEMERIS_TYPE = 0
CLASSIFICATION_TYPE = U
NORAD_CAT_ID   = 66092
ELEMENT_SET_NO = 999
REV_AT_EPOCH   = 399
BSTAR          = .12607548E-2
MEAN_MOTION_DOT = .188671E-2
MEAN_MOTION_DDOT = 0

CCSDS_OMM_VERS = 2.0
CREATION_DATE  = 
ORIGINATOR     = 

OBJECT_NAME    = STARLINK-35500
OBJECT_ID      = 2025-236H
CENTER_NAME    = EARTH
REF_FRAME      = TEME
TIME_SYSTEM    = UTC
MEAN_ELEMENT_THEORY = SGP/SGP4

EPOCH          = 2025-11-06T06:39:30.952512
MEAN_MOTION    = 15.74256312
ECCENTRICITY   = .00013988
INCLINATION    = 53.1574
RA_OF_ASC_NODE = 321.1195
ARG_OF_PERICENTER = 84.3377
MEAN_ANOMALY   = 275.7803

EPHEMERIS_TYPE = 0
CLASSIFICATION_TYPE = U
NORAD_CAT_ID   = 66093
ELEMENT_SET_NO = 999
REV_AT_EPOCH   = 399
BSTAR          = .14099522E-2
MEAN_MOTION_DOT = .211748E-2
MEAN_MOTION_DDOT = 0

CCSDS_OMM_VERS = 2.0
CREATION_DATE  = 
ORIGINATOR     = 

OBJECT_NAME    = STARLINK-35528
OBJECT_ID      = 2025-236J
CENTER_NAME    = EARTH
REF_FRAME      = TEME
TIME_SYSTEM    = UTC
MEAN_ELEMENT_THEORY = SGP/SGP4

EPOCH          = 2025-11-06T06:39:01.830528
MEAN_MOTION    = 15.74255994
ECCENTRICITY   = .00012163
INCLINATION    = 53.1574
RA_OF_ASC_NODE = 321.1172
ARG_OF_PERICENTER = 106.8205
MEAN_ANOMALY   = 253.2948

EPHEMERIS_TYPE = 0
CLASSIFICATION_TYPE = U
NORAD_CAT_ID   = 66094
ELEMENT_SET_NO = 999
REV_AT_EPOCH   = 399
BSTAR          = .15741883E-2
MEAN_MOTION_DOT = .237207E-2
MEAN_MOTION_DDOT = 0

CCSDS_OMM_VERS = 2.0
CREATION_DATE  = 
ORIGINATOR     = 

OBJECT_NAME    = STARLINK-35559
OBJECT_ID      = 2025-236K
CENTER_NAME    = EARTH
REF_FRAME      = TEME
TIME_SYSTEM    = UTC
MEAN_ELEMENT_THEORY = SGP/SGP4

EPOCH          = 2025-11-06T06:38:32.242848
MEAN_MOTION    = 15.74319753
ECCENTRICITY   = .00011241
INCLINATION    = 53.1574
RA_OF_ASC_NODE = 321.1147
ARG_OF_PERICENTER = 106.3532
MEAN_ANOMALY   = 253.7611

EPHEMERIS_TYPE = 0
CLASSIFICATION_TYPE = U
NORAD_CAT_ID   = 66095
ELEMENT_SET_NO = 999
REV_AT_EPOCH   = 399
BSTAR          = .22808882E-2
MEAN_MOTION_DOT = .349624E-2
MEAN_MOTION_DDOT = 0

CCSDS_OMM_VERS = 2.0
CREATION_DATE  = 
ORIGINATOR     = 

OBJECT_NAME    = STARLINK-34386
OBJECT_ID      = 2025-236L
CENTER_NAME    = EARTH
REF_FRAME      = TEME
TIME_SYSTEM    = UTC
MEAN_ELEMENT_THEORY = SGP/SGP4

EPOCH          = 2025-11-06T05:06:38.070432
MEAN_MOTION    = 15.74263218
ECCENTRICITY   = .0001222
INCLINATION    = 53.1573
RA_OF_ASC_NODE = 321.4271
ARG_OF_PERICENTER = 99.4865
MEAN_ANOMALY   = 260.6293

EPHEMERIS_TYPE = 0
CLASSIFICATION_TYPE = U
NORAD_CAT_ID   = 66096
ELEMENT_SET_NO = 999
REV_AT_EPOCH   = 398
BSTAR          = .16715097E-2
MEAN_MOTION_DOT = .252452E-2
MEAN_MOTION_DDOT = 0

CCSDS_OMM_VERS = 2.0
CREATION_DATE  = 
ORIGINATOR     = 

OBJECT_NAME    = STARLINK-35613
OBJECT_ID      = 2025-236M
CENTER_NAME    = EARTH
REF_FRAME      = TEME
TIME_SYSTEM    = UTC
MEAN_ELEMENT_THEORY = SGP/SGP4

EPOCH          = 2025-11-06T05:05:39.527520
MEAN_MOTION    = 15.74260143
ECCENTRICITY   = .00010807
INCLINATION    = 53.1574
RA_OF_ASC_NODE = 321.4222
ARG_OF_PERICENTER = 102.6650
MEAN_ANOMALY   = 257.4491

EPHEMERIS_TYPE = 0
CLASSIFICATION_TYPE = U
NORAD_CAT_ID   = 66097
ELEMENT_SET_NO = 999
REV_AT_EPOCH   = 398
BSTAR          = .15265077E-2
MEAN_MOTION_DOT = .229842E-2
MEAN_MOTION_DDOT = 0

CCSDS_OMM_VERS = 2.0
CREATION_DATE  = 
ORIGINATOR     = 

OBJECT_NAME    = STARLINK-34206
OBJECT_ID      = 2025-236N
CENTER_NAME    = EARTH
REF_FRAME      = TEME
TIME_SYSTEM    = UTC
MEAN_ELEMENT_THEORY = SGP/SGP4

EPOCH          = 2025-11-06T06:36:35.754912
MEAN_MOTION    = 15.74250485
ECCENTRICITY   = .00011261
INCLINATION    = 53.1577
RA_OF_ASC_NODE = 321.1050
ARG_OF_PERICENTER = 95.6787
MEAN_ANOMALY   = 264.4361

EPHEMERIS_TYPE = 0
CLASSIFICATION_TYPE = U
NORAD_CAT_ID   = 66098
ELEMENT_SET_NO = 999
REV_AT_EPOCH   = 398
BSTAR          = .13615785E-2
MEAN_MOTION_DOT = .204226E-2
MEAN_MOTION_DDOT = 0

